STARLINK-1470           
1 45772U 20038AU  26068.60892913  .00054678  00000+0  19687-2 0  9990
2 45772  53.0480 174.6971 0002444  12.8687 347.2373 15.28074860317065
STARLINK-34015          
1 63854U 25093U   26068.66670139 -.00013015  00000+0 -46418-3 0  9992
2 63854  43.0021  78.3577 0001302 259.9670 136.0451 15.27584294  5674
